id,code_postal,pop,adresse,ville,latitude,longitude,prix_sp95,prix_e85_maj,Prix E85,prix_e10_maj,prix_e10,prix_sp98_maj,prix_sp98,Carburants disponibles,Carburants indisponibles,Automate 24-24 (oui/non),departement,code_departement,region,code_region
77508002,77410,R,Route Nationale 3,Claye-Souilly,48.944,2.681,1.98,4/5/2024 11:48,1.005,4/5/2024 11:48,1.945,4/5/2024 11:48,1.999,"Gazole,SP95,E85,E10,SP98",GPLc,Oui,Seine-et-Marne,77,Île-de-France,11
78840003,78840,R,2 Rue Charles de Gaulle,Freneuse,49.039,1.592,1.965,3/18/2024 7:58,0.849,4/3/2024 15:20,1.925,3/30/2024 21:30,1.999,"Gazole,SP95,E85,E10,SP98",GPLc,Oui,Yvelines,78,Île-de-France,11
45200004,45200,R,"1094, avenue d'Antibes",Amilly,47.978,2.733,1.888,4/4/2024 12:32,0.848,4/4/2024 12:32,1.863,4/4/2024 12:32,1.928,"Gazole,SP95,E85,E10,SP98",GPLc,Non,Loiret,45,Centre-Val de Loire,24
83460002,83460,R,Voie Jacques Prévert,Les Arcs,43.451,6.487,1.889,3/27/2024 8:50,0.859,4/5/2024 9:43,1.849,4/5/2024 9:43,1.929,"Gazole,SP95,E85,E10,SP98",GPLc,Non,Var,83,Provence-Alpes-Côte d'Azur,93
29470003,29470,R,zac ty ar menez,Plougastel-Daoulas,48.383,-4.348,1.869,3/15/2024 10:23,0.899,4/3/2024 10:47,1.829,4/5/2024 11:35,1.909,"Gazole,SP95,E85,E10,SP98",GPLc,Non,Finistère,29,Bretagne,53
31673001,31670,R,Centre Commercial LABEGE 2,Labège,43.551,1.504,1.951,4/5/2024 9:57,1,4/5/2024 9:57,1.906,4/5/2024 9:57,1.999,"Gazole,SP95,E85,E10,SP98",GPLc,Oui,Haute-Garonne,31,Occitanie,76
47130001,47130,R,2734 ROUTE DE BORDEAUX,Port-Sainte-Marie,44.252,0.382,1.922,3/29/2024 9:30,0.848,4/5/2024 9:51,1.878,4/5/2024 9:51,1.965,"Gazole,SP95,E85,E10,SP98",GPLc,Oui,Lot-et-Garonne,47,Nouvelle-Aquitaine,75
1000001,1000,R,596 AVENUE DE TREVOUX,Saint-Denis-lès-Bourg,46.201,5.198,1.902,3/1/2024 15:51,0.849,4/5/2024 9:57,1.863,4/5/2024 9:57,2.002,"Gazole,SP95,E85,E10,SP98",GPLc,Non,Ain,1,Auvergne-Rhône-Alpes,84
68560001,68560,R,"7, rue de Bettendorf",Hirsingue,47.586,7.258,1.879,4/5/2024 11:31,0.898,4/5/2024 11:31,1.877,4/5/2024 11:31,1.935,"Gazole,SP95,E85,E10,SP98",GPLc,Oui,Haut-Rhin,68,Grand Est,44
3100008,3100,R,Rue de la Rotonde,Montluçon,46.33362,2.60087,1.909,1/8/2024 9:47,0.848,4/3/2024 11:14,1.859,4/3/2024 11:14,1.949,"Gazole,SP95,E85,E10,SP98",GPLc,Non,Allier,3,Auvergne-Rhône-Alpes,84
62000005,62000,R,89 Avenue Fernand Lobbedez,Arras,50.28087,2.78103,1.909,3/22/2024 9:23,0.799,4/5/2024 11:36,1.845,4/2/2024 16:33,1.929,"Gazole,SP95,E85,E10,SP98",GPLc,Non,Pas-de-Calais,62,Hauts-de-France,32
77230009,77230,R,5 avenue des deux Moulins,Saint-Mard,49.0407058,2.686014698,1.99,3/27/2024 11:53,1.019,3/27/2024 11:53,1.952,3/27/2024 11:53,2.049,"Gazole,SP95,E85,E10,SP98",GPLc,Non,Seine-et-Marne,77,Île-de-France,11
50260001,50260,R,39 route de Valognes,Bricquebec-en-Cotentin,49.477,-1.62,1.919,3/18/2024 9:30,0.85,4/3/2024 10:15,1.869,4/3/2024 10:15,1.959,"Gazole,SP95,E85,E10,SP98",GPLc,Non,Manche,50,Normandie,28
44380007,44380,R,Avenue du Baulois,Pornichet,47.26546705,-2.33357487,1.859,2/29/2024 10:02,0.848,4/3/2024 11:31,1.859,3/30/2024 20:16,1.899,"Gazole,SP95,E85,E10,SP98",GPLc,Non,Loire-Atlantique,44,Pays de la Loire,52
30700004,30700,R,Route d'Alès,Montaren-et-Saint-Médiers,44.025,4.389,1.909,4/5/2024 11:18,0.848,4/5/2024 11:18,1.859,4/5/2024 11:18,1.969,"Gazole,SP95,E85,E10,SP98",GPLc,Oui,Gard,30,Occitanie,76
83720001,83720,R,RN 555,Trans-en-Provence,43.50847719,6.479242737,1.972,4/5/2024 9:57,0.86,4/5/2024 9:57,1.926,4/5/2024 9:57,1.999,"Gazole,SP95,E85,E10,SP98",GPLc,Non,Var,83,Provence-Alpes-Côte d'Azur,93
77400008,77400,R,17 allée des rousselets Zac des vallières,Thorigny-sur-Marne,48.896,2.716,1.979,1/11/2024 10:59,0.848,4/5/2024 11:26,1.939,4/4/2024 12:26,1.999,"Gazole,SP95,E85,E10,SP98",GPLc,Oui,Seine-et-Marne,77,Île-de-France,11
81300006,81300,R,ROND POINT RHIN ET DANUBE,Graulhet,43.761,1.97,1.9,1/30/2024 9:09,0.848,4/4/2024 17:30,1.854,4/2/2024 16:15,1.935,"Gazole,SP95,E85,E10,SP98",GPLc,Oui,Tarn,81,Occitanie,76
6500005,6500,R,45 AV DE ST ROMAN,Menton,43.805,7.487,1.952,4/5/2024 10:06,0.848,4/5/2024 10:06,1.909,4/5/2024 10:06,1.99,"Gazole,SP95,E85,E10,SP98",GPLc,Oui,Alpes-Maritimes,6,Provence-Alpes-Côte d'Azur,93
37250006,37250,R,RUE DES PEUPLIERS - ROND POINT DU FOUR A CHAUX,Sorigny,47.24655384,0.696641445,1.919,3/20/2024 15:22,0.859,3/27/2024 18:08,1.869,3/27/2024 18:08,1.959,"Gazole,SP95,E85,E10,SP98",GPLc,Oui,Indre-et-Loire,37,Centre-Val de Loire,24
81100005,81100,R,1 avenue Georges Pompidou,Castres,43.62,2.27,1.905,3/28/2024 13:59,0.889,4/4/2024 15:42,1.856,4/4/2024 15:42,1.965,"Gazole,SP95,E85,E10,SP98",GPLc,Oui,Tarn,81,Occitanie,76
29290002,29290,R,Place Léon Cheminant,Saint-Renan,48.435,-4.622,1.99,3/14/2024 20:45,0.939,3/29/2024 20:37,1.955,2/23/2024 20:33,1.99,"Gazole,SP95,E85,E10,SP98",GPLc,Oui,Finistère,29,Bretagne,53
78550006,78550,R,Route de Gambais,Maulette,48.791,1.628,1.999,2/29/2024 9:41,0.848,4/5/2024 11:07,1.922,3/21/2024 9:01,1.999,"Gazole,SP95,E85,E10,SP98",GPLc,Non,Yvelines,78,Île-de-France,11
93240001,93240,R,80 BOULEVARD MAXIME GORKI,Stains,48.949,2.385,2.005,4/4/2024 11:15,0.936,4/5/2024 10:45,1.947,4/5/2024 10:45,2.038,"Gazole,SP95,E85,E10,SP98",GPLc,Non,Seine-Saint-Denis,93,Île-de-France,11
15000008,15000,R,66 Rue de Firminy,Aurillac,44.91572,2.43189,1.929,2/9/2024 15:47,0.849,4/2/2024 11:53,1.874,3/26/2024 9:51,1.931,"Gazole,SP95,E85,E10,SP98",GPLc,Non,Cantal,15,Auvergne-Rhône-Alpes,84
24170001,24170,R,VAUREZ,Pays de Belvès,44.771,1.011,1.896,2/14/2024 20:08,0.899,4/4/2024 20:52,1.958,2/12/2024 20:09,1.99,"Gazole,SP95,E85,E10,SP98",GPLc,Oui,Dordogne,24,Nouvelle-Aquitaine,75
76400009,76400,R,2010 ROUTE DU HAVRE,Fécamp,49.74544,0.37202,1.888,4/5/2024 10:30,0.788,4/5/2024 10:30,1.831,4/5/2024 10:30,1.916,"Gazole,SP95,E85,E10,SP98",GPLc,Non,Seine-Maritime,76,Normandie,28
91360003,91360,R,ROUTE de Corbeil,Épinay-sur-Orge,48.66764154,2.334365708,1.963,4/5/2024 9:57,0.985,4/5/2024 9:57,1.931,4/5/2024 9:57,1.99,"Gazole,SP95,E85,E10,SP98",GPLc,Oui,Essonne,91,Île-de-France,11
76520001,76520,R,801 Route de Paris,Franqueville-Saint-Pierre,49.398,1.178,1.919,4/5/2024 10:41,0.859,4/5/2024 10:41,1.868,4/5/2024 10:41,1.948,"Gazole,SP95,E85,E10,SP98",GPLc,Non,Seine-Maritime,76,Normandie,28
76370006,76370,R,Avenue de Breauté,Rouxmesnil-Bouteilles,49.914,1.094,1.889,1/3/2024 9:44,0.849,4/4/2024 12:32,1.839,4/4/2024 12:32,1.929,"Gazole,SP95,E85,E10,SP98",GPLc,Oui,Seine-Maritime,76,Normandie,28
31600001,31600,R,2 Boulevard de la leze,Eaunes,43.42,1.373,1.873,2/20/2024 8:09,0.845,4/5/2024 8:31,1.825,4/5/2024 8:31,1.913,"Gazole,SP95,E85,E10,SP98",GPLc,Non,Haute-Garonne,31,Occitanie,76
78200008,78200,R,16 Rue Jean Hoët,Mantes-la-Jolie,48.997,1.711,1.982,4/5/2024 11:00,0.849,4/5/2024 11:00,1.916,4/5/2024 11:00,1.994,"Gazole,SP95,E85,E10,SP98",GPLc,Oui,Yvelines,78,Île-de-France,11
83340008,83340,R,ZA du Peyrouas rn7,Flassans-sur-Issole,43.373,6.203,1.938,3/20/2024 13:53,0.898,4/4/2024 9:14,1.888,4/4/2024 9:14,1.968,"Gazole,SP95,E85,E10,SP98",GPLc,Oui,Var,83,Provence-Alpes-Côte d'Azur,93
9400001,9400,R,Route de Quié,Tarascon-sur-Ariège,42.845,1.598,1.999,1/12/2024 11:50,0.999,4/2/2024 11:38,1.969,4/2/2024 11:38,2.029,"Gazole,SP95,E85,E10,SP98",GPLc,Oui,Ariège,9,Occitanie,76
7300001,7300,R,RUE HELENE DE TOURNON,Tournon-sur-Rhône,45.055,4.839,1.867,1/26/2024 9:14,0.899,4/2/2024 13:35,1.837,3/27/2024 9:57,1.913,"Gazole,SP95,E85,E10,SP98",GPLc,Oui,Ardèche,7,Auvergne-Rhône-Alpes,84
56700004,56700,R,LA GARDELOUPE,Hennebont,47.799,-3.258,1.856,4/5/2024 10:28,0.784,4/5/2024 10:28,1.855,4/5/2024 10:28,1.919,"Gazole,SP95,E85,E10,SP98",GPLc,Non,Morbihan,56,Bretagne,53
34700005,34700,A,la méridienne - Autouroute A75 - sortie 54,Le Bosc,43.688,3.356,1.908,3/27/2024 11:29,0.858,3/27/2024 11:29,1.838,3/27/2024 11:29,1.918,"Gazole,SP95,E85,E10,SP98",GPLc,Oui,Hérault,34,Occitanie,76
44802001,44800,R,Boulevard de la Baule,Saint-Herblain,47.222,-1.606,1.903,4/4/2024 9:56,0.799,4/4/2024 9:56,1.848,4/4/2024 9:56,1.922,"Gazole,SP95,E85,E10,SP98",GPLc,Oui,Loire-Atlantique,44,Pays de la Loire,52
59264001,59264,R,ECHANGEUR 24,Onnaing,50.3873128,3.5987362,1.859,4/3/2024 12:17,0.899,4/3/2024 12:17,1.859,4/4/2024 10:46,1.969,"Gazole,SP95,E85,E10,SP98",GPLc,Oui,Nord,59,Hauts-de-France,32
60440001,60440,R,CHEMIN DE LA CROIX VERTE,Nanteuil-le-Haudouin,49.136,2.801,1.929,4/4/2024 22:00,0.849,4/4/2024 22:00,1.879,4/4/2024 22:00,1.969,"Gazole,SP95,E85,E10,SP98",GPLc,Oui,Oise,60,Hauts-de-France,32
78500001,78500,R,AVENUE ROBERT SHUMANN,Sartrouville,48.948,2.198,1.974,4/5/2024 9:57,0.9,4/5/2024 9:57,1.935,4/5/2024 9:57,1.999,"Gazole,SP95,E85,E10,SP98",GPLc,Non,Yvelines,78,Île-de-France,11
71600008,71600,R,le mont,Vitry-en-Charollais,46.464,4.086,1.899,3/29/2024 9:36,0.845,4/4/2024 10:35,1.869,4/4/2024 10:35,1.955,"Gazole,SP95,E85,E10,SP98",GPLc,Non,Saône-et-Loire,71,Bourgogne-Franche-Comté,27
81100006,81100,R,"RUE FRANCOIS COUPERIN,C.C LAMEILHE",Castres,43.592,2.255,1.895,1/6/2024 7:12,0.848,4/4/2024 8:17,1.839,4/5/2024 8:25,1.943,"Gazole,SP95,E85,E10,SP98",GPLc,Non,Tarn,81,Occitanie,76
68170004,68170,R,84 RUE DE MULHOUSE,Rixheim,47.75373058,7.396936206,1.89,4/4/2024 10:00,0.897,4/4/2024 10:00,1.854,4/4/2024 10:00,1.926,"Gazole,SP95,E85,E10,SP98",GPLc,Oui,Haut-Rhin,68,Grand Est,44
26150001,26150,R,Route de la résistance Conches et Chamarges,Die,44.76076,5.35682,1.899,1/19/2024 15:02,0.849,3/26/2024 15:35,1.869,3/26/2024 15:35,1.939,"Gazole,SP95,E85,E10,SP98",GPLc,Non,Drôme,26,Auvergne-Rhône-Alpes,84
28000007,28000,R,Route de Patay,Chartres,48.43240148,1.492714848,1.897,4/4/2024 11:14,0.849,4/4/2024 11:14,1.858,4/4/2024 11:14,1.938,"Gazole,SP95,E85,E10,SP98",GPLc,Non,Eure-et-Loir,28,Centre-Val de Loire,24
30600004,30600,R,206 avenue de la condamine,Vauvert,43.68958601,4.273257926,1.899,3/16/2024 12:10,0.987,4/5/2024 11:37,1.879,4/5/2024 11:37,1.969,"Gazole,SP95,E85,E10,SP98",GPLc,Oui,Gard,30,Occitanie,76
60320001,60320,R,"176, Avenue de la Gare",Béthisy-Saint-Pierre,49.298,2.798,1.899,4/2/2024 18:11,0.899,4/2/2024 18:11,1.879,4/2/2024 18:11,1.939,"Gazole,SP95,E85,E10,SP98",GPLc,Non,Oise,60,Hauts-de-France,32
45400002,45400,R,198 Rue Marcellin Berthelot,Fleury-les-Aubrais,47.933,1.917,2.051,2/29/2024 22:27,0.981,4/5/2024 0:45,2.013,4/5/2024 0:45,2.092,"Gazole,SP95,E85,E10,SP98",GPLc,Non,Loiret,45,Centre-Val de Loire,24
33410003,33410,R,CD 10,Béguey,44.64434098,-0.322424629,1.921,3/14/2024 11:57,0.877,4/3/2024 12:28,1.863,4/4/2024 11:37,1.981,"Gazole,SP95,E85,E10,SP98",GPLc,Oui,Gironde,33,Nouvelle-Aquitaine,75
34980001,34980,R,ROUTE DE GANGES,Montpellier,43.6443,3.84361,1.918,4/5/2024 0:32,0.845,4/5/2024 0:32,1.869,4/5/2024 0:32,1.976,"Gazole,SP95,E85,E10,SP98",GPLc,Non,Hérault,34,Occitanie,76
95137001,95130,R,362 Rue du Général Leclerc,Franconville,48.98928594,2.2065468,1.919,4/3/2024 10:05,0.865,4/3/2024 10:05,1.869,4/3/2024 10:05,1.955,"Gazole,SP95,E85,E10,SP98",GPLc,Oui,Val-d'Oise,95,Île-de-France,11
10430003,10430,R,71 rue Victor Hugo,Rosières-près-Troyes,48.26650804,4.061172761,1.919,4/5/2024 10:20,0.859,4/5/2024 10:20,1.879,4/5/2024 10:20,1.979,"Gazole,SP95,E85,E10,SP98",GPLc,Oui,Aube,10,Grand Est,44
77160002,77160,R,Avenue de la Voulzie,Provins,48.548,3.292,1.909,4/5/2024 3:16,0.838,4/5/2024 3:16,1.869,4/5/2024 3:16,1.949,"Gazole,SP95,E85,E10,SP98",GPLc,Non,Seine-et-Marne,77,Île-de-France,11
64220004,64220,R,AV DU JAI ALAI,Saint-Jean-Pied-de-Port,43.165,-1.234,1.954,4/3/2024 10:34,1.033,4/3/2024 10:34,1.954,4/3/2024 10:34,2,"Gazole,SP95,E85,E10,SP98",GPLc,Non,Pyrénées-Atlantiques,64,Nouvelle-Aquitaine,75
1000008,1000,R,Bd Charles de Gaulle,Bourg-en-Bresse,46.199,5.241,1.957,4/5/2024 9:57,0.848,4/5/2024 9:57,1.895,4/5/2024 9:57,2,"Gazole,SP95,E85,E10,SP98",GPLc,Oui,Ain,1,Auvergne-Rhône-Alpes,84
33260011,33260,R,Avenue de l'Europe,La Teste-de-Buch,44.618,-1.123,1.904,2/5/2024 8:42,0.845,4/4/2024 16:57,1.864,4/4/2024 16:57,1.954,"Gazole,SP95,E85,E10,SP98",GPLc,Oui,Gironde,33,Nouvelle-Aquitaine,75
14740001,14740,R,RUE HECTOR MALOT,Thue et Mue,49.21542433,-0.504916881,1.919,4/2/2024 16:15,0.869,4/2/2024 16:15,1.869,4/2/2024 16:15,1.959,"Gazole,SP95,E85,E10,SP98",GPLc,Oui,Calvados,14,Normandie,28
84000017,84000,R,191 Route de Tarascon,Avignon,43.91892914,4.809416071,1.943,4/4/2024 12:30,0.957,4/4/2024 12:30,1.861,4/4/2024 12:30,1.979,"Gazole,SP95,E85,E10,SP98",GPLc,Non,Vaucluse,84,Provence-Alpes-Côte d'Azur,93
30100011,30100,R,2 AVENUE D'INDY,Alès,44.135,4.092,2,4/4/2024 21:30,1,4/4/2024 21:30,1.97,4/4/2024 21:30,2.03,"Gazole,SP95,E85,E10,SP98",GPLc,Oui,Gard,30,Occitanie,76
26120004,26120,R,Les Champs,Montélier,44.929,5.022,1.923,2/15/2024 10:14,0.848,4/4/2024 11:06,1.875,4/4/2024 11:06,1.958,"Gazole,SP95,E85,E10,SP98",GPLc,Oui,Drôme,26,Auvergne-Rhône-Alpes,84
60800005,60800,R,rue Henri LAROCHE,Crépy-en-Valois,49.22465943,2.905491376,1.909,4/4/2024 11:44,0.848,4/4/2024 11:44,1.869,4/4/2024 11:44,1.929,"Gazole,SP95,E85,E10,SP98",GPLc,Non,Oise,60,Hauts-de-France,32
24750002,24750,R,Route de Limoges,Trélissac,45.2,0.785,1.894,4/4/2024 10:04,0.849,4/4/2024 10:04,1.869,4/4/2024 10:04,1.938,"Gazole,SP95,E85,E10,SP98",GPLc,Non,Dordogne,24,Nouvelle-Aquitaine,75
38180001,38180,R,112 Rue de la Liberté,Seyssins,45.16,5.695,1.89,3/18/2024 11:35,0.848,4/5/2024 10:55,1.854,4/5/2024 10:55,1.936,"Gazole,SP95,E85,E10,SP98",GPLc,Oui,Isère,38,Auvergne-Rhône-Alpes,84
27406001,27400,R,RUE DES PRES,Incarville,49.235,1.183,1.899,1/31/2024 10:15,0.847,4/3/2024 11:18,1.845,4/4/2024 11:17,1.935,"Gazole,SP95,E85,E10,SP98",GPLc,Oui,Eure,27,Normandie,28
34800005,34800,A,"341, avenue de la salamane",Clermont-l'Hérault,43.61,3.463,1.918,4/5/2024 11:46,0.898,4/5/2024 11:46,1.848,4/5/2024 11:46,1.928,"Gazole,SP95,E85,E10,SP98",GPLc,Oui,Hérault,34,Occitanie,76
25200005,25200,R,LE PIED DES GOUTTES,Montbéliard,47.499,6.814,1.884,4/5/2024 11:35,0.802,4/5/2024 11:35,1.862,4/5/2024 11:35,1.906,"Gazole,SP95,E85,E10,SP98",GPLc,Oui,Doubs,25,Bourgogne-Franche-Comté,27
27190002,27190,R,Rue Eugène Pottier,Conches-en-Ouche,48.95539,0.94694,1.925,1/4/2024 11:34,0.848,4/2/2024 12:43,1.879,4/5/2024 10:43,1.969,"Gazole,SP95,E85,E10,SP98",GPLc,Non,Eure,27,Normandie,28
26750001,26750,R,95 RUE CLAIR,Saint-Paul-lès-Romans,45.057,5.099,1.897,1/11/2024 10:11,0.897,4/5/2024 11:02,1.857,4/5/2024 11:02,1.939,"Gazole,SP95,E85,E10,SP98",GPLc,Oui,Drôme,26,Auvergne-Rhône-Alpes,84
65000007,65000,R,1 rue Jean Perrin,Tarbes,43.22,0.08,1.938,4/5/2024 11:29,0.898,4/5/2024 11:29,1.869,4/5/2024 11:29,1.948,"Gazole,SP95,E85,E10,SP98",GPLc,Oui,Hautes-Pyrénées,65,Occitanie,76
38230003,38230,R,Rue des Ardennes,Tignieu-Jameyzieu,45.745,5.183,1.878,4/5/2024 11:30,0.849,4/5/2024 11:30,1.879,4/5/2024 11:30,1.931,"Gazole,SP95,E85,E10,SP98",GPLc,Oui,Isère,38,Auvergne-Rhône-Alpes,84
47500007,47500,R,ZONE DU BOSCLA,Saint-Vite,44.476,0.951,1.883,1/23/2024 15:32,0.848,4/2/2024 8:31,1.843,4/2/2024 8:31,1.921,"Gazole,SP95,E85,E10,SP98",GPLc,Oui,Lot-et-Garonne,47,Nouvelle-Aquitaine,75
79460001,79460,R,AV DU MARAIS POITEVIN,Magné,46.316,-0.557,1.873,4/3/2024 10:23,0.809,4/3/2024 10:23,1.829,4/3/2024 10:23,1.919,"Gazole,SP95,E85,E10,SP98",GPLc,Oui,Deux-Sèvres,79,Nouvelle-Aquitaine,75
26400004,26400,R,QUARTIER MIVOIE,Aouste-sur-Sye,44.723,5.037,1.915,3/18/2024 10:19,0.848,4/4/2024 12:07,1.875,4/4/2024 12:07,1.945,"Gazole,SP95,E85,E10,SP98",GPLc,Non,Drôme,26,Auvergne-Rhône-Alpes,84
62101001,62100,R,Avenue Georges Guynemer,Calais,50.95,1.893,1.929,4/3/2024 8:39,0.919,4/3/2024 8:39,1.879,4/3/2024 8:39,1.989,"Gazole,SP95,E85,E10,SP98",GPLc,Oui,Pas-de-Calais,62,Hauts-de-France,32
6580001,6580,R,87 Route de la Fènerie,Pégomas,43.5922,6.92965,1.918,3/26/2024 9:11,0.902,3/26/2024 9:11,1.847,3/26/2024 9:11,1.945,"Gazole,SP95,E85,E10,SP98",GPLc,Non,Alpes-Maritimes,6,Provence-Alpes-Côte d'Azur,93
58500003,58500,R,Avenue Saint-Exupéry,Clamecy,47.47377279,3.519365472,1.899,1/27/2024 10:19,0.899,3/28/2024 9:41,1.869,3/22/2024 11:09,1.929,"Gazole,SP95,E85,E10,SP98",GPLc,Non,Nièvre,58,Bourgogne-Franche-Comté,27
34410002,34410,R,Route de Valras,Sérignan,43.27112,3.2829,1.889,3/22/2024 13:22,0.86,4/3/2024 15:13,1.858,4/5/2024 10:50,1.939,"Gazole,SP95,E85,E10,SP98",GPLc,Non,Hérault,34,Occitanie,76
71160003,71160,R,CC LIGERVAL-ZAC DES CHARMES-AVENUE DE L' EUROPE,Digoin,46.474,4.004,1.899,3/12/2024 9:22,0.849,4/5/2024 11:43,1.859,4/5/2024 11:43,1.929,"Gazole,SP95,E85,E10,SP98",GPLc,Oui,Saône-et-Loire,71,Bourgogne-Franche-Comté,27
42340001,42340,R,12 avenue Henri PLANCHET,Veauche,45.564,4.291,1.89,3/29/2024 17:37,0.946,4/4/2024 11:39,1.852,3/26/2024 16:20,1.955,"Gazole,SP95,E85,E10,SP98",GPLc,Non,Loire,42,Auvergne-Rhône-Alpes,84
52100009,52100,R,Rue des Loyes,Saint-Dizier,48.627,4.973,1.91,4/5/2024 3:16,0.838,4/5/2024 3:16,1.869,4/5/2024 3:16,1.949,"Gazole,SP95,E85,E10,SP98",GPLc,Oui,Haute-Marne,52,Grand Est,44
77690001,77690,R,22 RUE DU POIRIER DE FROMIE,Montigny-sur-Loing,48.33563343,2.732221899,1.955,3/26/2024 14:35,0.919,4/4/2024 14:03,1.885,4/4/2024 14:03,1.975,"Gazole,SP95,E85,E10,SP98",GPLc,Oui,Seine-et-Marne,77,Île-de-France,11
49310001,49310,R,centre commercial les courtils,Lys-Haut-Layon,47.147,-0.522,1.899,4/2/2024 9:51,0.845,4/4/2024 10:03,1.849,4/4/2024 10:03,1.939,"Gazole,SP95,E85,E10,SP98",GPLc,Oui,Maine-et-Loire,49,Pays de la Loire,52
44470005,44470,R,Le souchais - route de Sucé,Carquefou,47.3,-1.498,1.884,4/4/2024 12:47,0.795,4/4/2024 12:47,1.854,4/4/2024 12:47,1.921,"Gazole,SP95,E85,E10,SP98",GPLc,Non,Loire-Atlantique,44,Pays de la Loire,52
47700001,47700,R,3 rue henri iv,Casteljaloux,44.314,0.081,1.899,4/5/2024 11:01,0.899,4/5/2024 11:02,1.854,4/5/2024 11:02,1.956,"Gazole,SP95,E85,E10,SP98",GPLc,Non,Lot-et-Garonne,47,Nouvelle-Aquitaine,75
77380001,77380,R,Rue Charles FABRY,Combs-la-Ville,48.649,2.563,1.969,2/5/2024 9:28,0.848,4/5/2024 9:26,1.919,4/2/2024 9:43,1.999,"Gazole,SP95,E85,E10,SP98",GPLc,Oui,Seine-et-Marne,77,Île-de-France,11
69970001,69970,R,"85, Avenue de Chaponnay - Parc d'activité de la vallée de l'Ozon",Chaponnay,45.65,4.927,1.879,3/15/2024 9:50,0.848,4/2/2024 11:00,1.849,4/2/2024 11:00,1.929,"Gazole,SP95,E85,E10,SP98",GPLc,Oui,Rhône,69,Auvergne-Rhône-Alpes,84
44190008,44190,R,Rue des Malifestes,Clisson,47.099,-1.282,1.878,4/5/2024 10:29,0.798,4/5/2024 10:29,1.834,4/5/2024 10:29,1.911,"Gazole,SP95,E85,E10,SP98",GPLc,Oui,Loire-Atlantique,44,Pays de la Loire,52
1340003,1340,R,Les Cézilles,Jayat,46.346,5.126,1.894,3/30/2024 20:57,0.848,4/3/2024 12:43,1.834,4/4/2024 13:13,1.919,"Gazole,SP95,E85,E10,SP98",GPLc,Oui,Ain,1,Auvergne-Rhône-Alpes,84
87280003,87280,R,Rue Henry Giffard,Limoges,45.87000896,1.268408763,1.889,3/28/2024 11:05,0.835,4/5/2024 11:12,1.835,3/30/2024 22:33,1.929,"Gazole,SP95,E85,E10,SP98",GPLc,Non,Haute-Vienne,87,Nouvelle-Aquitaine,75
60590001,60590,R,RN 181,Trie-Château,49.289,1.807,1.919,3/30/2024 20:03,0.848,4/3/2024 11:39,1.858,4/2/2024 10:27,1.924,"Gazole,SP95,E85,E10,SP98",GPLc,Oui,Oise,60,Hauts-de-France,32
49150001,49150,R,Avenue d'Angers,Baugé-en-Anjou,47.54701,-0.1199,1.925,4/5/2024 10:50,0.849,4/5/2024 10:50,1.865,4/5/2024 10:50,1.965,"Gazole,SP95,E85,E10,SP98",GPLc,Non,Maine-et-Loire,49,Pays de la Loire,52
77150002,77420,R,Avenue des Pyramides,Champs-sur-Marne,48.853,2.584,1.981,4/5/2024 9:57,1.005,4/5/2024 9:57,1.928,4/5/2024 9:57,1.999,"Gazole,SP95,E85,E10,SP98",GPLc,Oui,Seine-et-Marne,77,Île-de-France,11
29870001,29870,R,rue de Verdun - La Gare,Lannilis,48.57,-4.512,1.879,3/15/2024 11:27,0.829,4/4/2024 11:08,1.839,3/28/2024 10:02,1.899,"Gazole,SP95,E85,E10,SP98",GPLc,Oui,Finistère,29,Bretagne,53
90008001,90000,R,1 avenue du général de Gaulle,Belfort,47.631,6.855,1.858,4/5/2024 11:33,0.897,4/5/2024 11:33,1.828,4/5/2024 11:33,1.919,"Gazole,SP95,E85,E10,SP98",GPLc,Oui,Territoire de Belfort,90,Bourgogne-Franche-Comté,27
86200004,86200,R,FAUBOURG SAINT LAZARE,Loudun,46.997,0.092,1.899,3/21/2024 12:41,0.879,4/3/2024 14:30,1.849,4/3/2024 14:30,1.929,"Gazole,SP95,E85,E10,SP98",GPLc,Oui,Vienne,86,Nouvelle-Aquitaine,75
1000009,1000,R,56 Rue du Stand,Bourg-en-Bresse,46.196,5.229,1.898,1/31/2024 10:36,0.848,4/5/2024 11:04,1.858,4/3/2024 11:40,1.938,"Gazole,SP95,E85,E10,SP98",GPLc,Oui,Ain,1,Auvergne-Rhône-Alpes,84
84120001,84120,R,Boulevard Jean Guigues (=des Jardins),Pertuis,43.695,5.492,1.919,4/4/2024 13:40,0.949,4/4/2024 13:40,1.859,4/4/2024 13:40,1.969,"Gazole,SP95,E85,E10,SP98",GPLc,Non,Vaucluse,84,Provence-Alpes-Côte d'Azur,93
42610001,42610,R,2A RUE DU 8 MAI 1945,Saint-Romain-le-Puy,45.55388397,4.120547229,1.929,1/17/2024 9:19,0.849,4/4/2024 21:00,1.879,4/4/2024 21:00,1.979,"Gazole,SP95,E85,E10,SP98",GPLc,Oui,Loire,42,Auvergne-Rhône-Alpes,84
8400003,8400,R,115 rue Bournizet,Vouziers,49.396,4.682,1.921,4/5/2024 3:16,0.847,4/5/2024 3:16,1.891,4/5/2024 3:16,1.973,"Gazole,SP95,E85,E10,SP98",GPLc,Non,Ardennes,8,Grand Est,44
49000002,49000,R,RUE DU GRAND LAUNAY,Angers,47.468,-0.594,1.923,4/5/2024 0:41,0.85,4/5/2024 0:41,1.875,4/5/2024 0:41,1.969,"Gazole,SP95,E85,E10,SP98",GPLc,Non,Maine-et-Loire,49,Pays de la Loire,52
34600003,34600,R,Route de Bédarieux,Villemagne-l'Argentière,43.596,3.129,1.927,3/1/2024 13:54,0.848,4/5/2024 9:00,1.881,4/5/2024 9:00,1.978,"Gazole,SP95,E85,E10,SP98",GPLc,Non,Hérault,34,Occitanie,76
67441001,67440,R,ROUTE DE SAVERNE,Marmoutier,48.701,7.375,1.869,4/5/2024 10:00,0.855,4/5/2024 10:00,1.85,4/5/2024 10:00,1.917,"Gazole,SP95,E85,E10,SP98",GPLc,Oui,Bas-Rhin,67,Grand Est,44
51110002,51110,R,ZAC du Val des Bois,Warmeriville,49.34934483,4.208877066,1.919,3/29/2024 16:20,0.848,4/5/2024 8:48,1.975,4/5/2024 8:48,1.963,"Gazole,SP95,E85,E10,SP98",GPLc,Non,Marne,51,Grand Est,44
13545001,13546,R,1175 Rue Guillaume du Vair,Aix-en-Provence,43.506,5.399,1.949,4/5/2024 10:50,0.899,4/5/2024 10:50,1.879,4/5/2024 10:50,1.999,"Gazole,SP95,E85,E10,SP98",GPLc,Oui,Bouches-du-Rhône,13,Provence-Alpes-Côte d'Azur,93
56170003,56170,R,116 Rue du Port de Pêche,Quiberon,47.48597,-3.1208,1.875,3/29/2024 16:34,0.879,4/5/2024 11:14,1.845,4/2/2024 11:44,1.917,"Gazole,SP95,E85,E10,SP98",GPLc,Non,Morbihan,56,Bretagne,53
81120002,81120,R,27 Rue de la Bouriotte,Réalmont,43.77115,2.18349,1.889,1/9/2024 10:40,0.848,4/4/2024 10:47,1.835,4/4/2024 10:47,1.939,"Gazole,SP95,E85,E10,SP98",GPLc,Non,Tarn,81,Occitanie,76
33370006,33370,R,avenue Guyenne,Artigues-près-Bordeaux,44.846957,-0.497714,1.891,4/5/2024 10:30,0.848,4/5/2024 10:30,1.852,4/5/2024 10:30,1.931,"Gazole,SP95,E85,E10,SP98",GPLc,Oui,Gironde,33,Nouvelle-Aquitaine,75
86700003,86700,R,28 avenue de Paris,Valence-en-Poitou,46.305,0.183,1.889,3/27/2024 8:48,0.848,3/30/2024 20:30,1.839,3/30/2024 20:30,1.929,"Gazole,SP95,E85,E10,SP98",GPLc,Non,Vienne,86,Nouvelle-Aquitaine,75
30320001,30320,R,58 Avenue Clément Ader,Marguerittes,43.86701,4.44381,1.889,3/12/2024 9:14,0.799,4/5/2024 10:42,1.859,4/5/2024 10:42,1.939,"Gazole,SP95,E85,E10,SP98",GPLc,Non,Gard,30,Occitanie,76
38360001,38360,R,Rue du 19 mars 1962,Sassenage,45.218,5.663,1.937,4/3/2024 17:50,1.008,4/3/2024 17:50,1.866,4/3/2024 17:50,1.98,"Gazole,SP95,E85,E10,SP98",GPLc,Oui,Isère,38,Auvergne-Rhône-Alpes,84
82100004,82100,R,1400 route de Moissac,Castelsarrasin,44.061,1.098,1.897,4/5/2024 11:32,0.846,4/5/2024 11:32,1.857,4/5/2024 11:32,1.937,"Gazole,SP95,E85,E10,SP98",GPLc,Non,Tarn-et-Garonne,82,Occitanie,76
48200004,48200,R,Route du Malzieu,Saint-Chély-d'Apcher,44.805,3.281,1.935,12/21/2023 13:15,0.899,4/4/2024 9:00,1.879,4/4/2024 9:00,1.96,"Gazole,SP95,E85,E10,SP98",GPLc,Oui,Lozère,48,Occitanie,76
33350002,33350,R,Route de Libourne,Saint-Magne-de-Castillon,44.854,-0.064,1.85,4/5/2024 11:34,0.803,4/5/2024 11:34,1.795,4/5/2024 11:34,1.898,"Gazole,SP95,E85,E10,SP98",GPLc,Non,Gironde,33,Nouvelle-Aquitaine,75
59721001,59220,R,Rue de Villars,Denain,50.327,3.394,1.88,4/5/2024 10:25,0.89,4/5/2024 10:25,1.84,4/5/2024 10:25,1.95,"Gazole,SP95,E85,E10,SP98",GPLc,Non,Nord,59,Hauts-de-France,32
28700004,28700,R,Zac du Pays Alnelois,Auneau-Bleury-Saint-Symphorien,48.47828318,1.768038114,1.864,4/5/2024 11:13,0.78,4/5/2024 11:13,1.814,4/5/2024 10:18,1.92,"Gazole,SP95,E85,E10,SP98",GPLc,Non,Eure-et-Loir,28,Centre-Val de Loire,24
87500004,87500,R,Route de Brive-Glandon,Saint-Yrieix-la-Perche,45.5,1.2,1.908,4/4/2024 20:53,0.848,4/4/2024 20:53,1.884,4/4/2024 20:53,1.968,"Gazole,SP95,E85,E10,SP98",GPLc,Non,Haute-Vienne,87,Nouvelle-Aquitaine,75
33310009,33310,R,Centre commercial les 4 pavillons,Lormont,44.865,-0.52,1.897,4/4/2024 12:39,0.891,4/4/2024 12:39,1.862,4/4/2024 12:39,1.941,"Gazole,SP95,E85,E10,SP98",GPLc,Oui,Gironde,33,Nouvelle-Aquitaine,75
95500006,95500,R,1 Rue Georges Pompidou,Gonesse,48.98940867,2.433548852,1.909,4/4/2024 10:21,0.848,4/4/2024 10:21,1.879,4/4/2024 10:21,1.949,"Gazole,SP95,E85,E10,SP98",GPLc,Non,Val-d'Oise,95,Île-de-France,11
36000010,36000,R,ALLEE DES MAISONS ROUGES,Le Poinçonnet,46.79952,1.73367,1.885,2/16/2024 14:28,0.847,4/3/2024 21:45,1.859,3/29/2024 20:45,1.945,"Gazole,SP95,E85,E10,SP98",GPLc,Non,Indre,36,Centre-Val de Loire,24
62380003,62380,R,ZAC DES SARS,Lumbres,50.714,2.109,1.919,3/22/2024 9:33,0.859,4/4/2024 10:30,1.869,4/4/2024 10:30,1.949,"Gazole,SP95,E85,E10,SP98",GPLc,Oui,Pas-de-Calais,62,Hauts-de-France,32
44150003,44150,R,Espace 23 SAINT-GEREON,Ancenis-Saint-Géréon,47.373,-1.194,1.884,4/5/2024 10:25,0.839,4/5/2024 10:25,1.839,4/5/2024 10:25,1.909,"Gazole,SP95,E85,E10,SP98",GPLc,Oui,Loire-Atlantique,44,Pays de la Loire,52
63100007,63100,R,2 Rue Georges Besse,Clermont-Ferrand,45.78049,3.13629,1.939,2/15/2024 8:11,0.849,4/3/2024 9:23,1.869,4/3/2024 9:23,1.959,"Gazole,SP95,E85,E10,SP98",GPLc,Non,Puy-de-Dôme,63,Auvergne-Rhône-Alpes,84
79000008,79000,R,358 Route d'Aiffres,Niort,46.304,-0.438,1.879,4/5/2024 11:00,0.849,4/5/2024 10:00,1.839,4/5/2024 10:00,1.929,"Gazole,SP95,E85,E10,SP98",GPLc,Oui,Deux-Sèvres,79,Nouvelle-Aquitaine,75
95570003,95570,R,Route Nationale 1,Moisselles,49.04117747,2.342204955,1.909,3/25/2024 12:19,0.855,4/4/2024 12:02,1.879,4/2/2024 14:05,1.949,"Gazole,SP95,E85,E10,SP98",GPLc,Non,Val-d'Oise,95,Île-de-France,11
42290001,42290,R,2 RUE DU MOULIN GILLIER,Sorbiers,45.481,4.444,1.939,3/27/2024 13:27,0.847,3/22/2024 10:23,1.91,3/27/2024 13:27,2.001,"Gazole,SP95,E85,E10,SP98",GPLc,Non,Loire,42,Auvergne-Rhône-Alpes,84
59190003,59190,R,Rue de l'Epeule,Hazebrouck,50.715,2.543,1.889,3/29/2024 9:38,0.819,4/5/2024 10:36,1.844,4/5/2024 10:36,1.899,"Gazole,SP95,E85,E10,SP98",GPLc,Oui,Nord,59,Hauts-de-France,32
59450005,59450,R,RUE AMBROISE CROIZAT,Sin-le-Noble,50.36802261,3.120128517,1.906,4/3/2024 19:28,0.97,4/3/2024 19:28,1.889,4/3/2024 19:28,1.989,"Gazole,SP95,E85,E10,SP98",GPLc,Oui,Nord,59,Hauts-de-France,32
59541001,59540,R,Boulevard du 8 Mai 1945,Caudry,50.129,3.426,1.909,4/2/2024 16:36,0.847,4/2/2024 16:36,1.859,4/3/2024 14:17,1.949,"Gazole,SP95,E85,E10,SP98",GPLc,Oui,Nord,59,Hauts-de-France,32
84400003,84400,R,Chemin des Abattoirs,Apt,43.88255048,5.381172234,1.899,3/5/2024 10:03,0.869,4/3/2024 11:20,1.845,4/3/2024 11:20,1.929,"Gazole,SP95,E85,E10,SP98",GPLc,Oui,Vaucluse,84,Provence-Alpes-Côte d'Azur,93
76720002,76890,R,A29,Beautot,49.634,1.044,1.889,2/24/2024 8:48,0.879,4/4/2024 10:40,1.859,4/4/2024 10:40,1.919,"Gazole,SP95,E85,E10,SP98",GPLc,Oui,Seine-Maritime,76,Normandie,28
35220001,35220,R,ZAC DES JARDINS DE LA BRETONNIERE,Châteaubourg,48.11338755,-1.3775118,1.859,3/9/2024 12:01,0.879,3/22/2024 16:05,1.819,4/2/2024 19:46,1.909,"Gazole,SP95,E85,E10,SP98",GPLc,Non,Ille-et-Vilaine,35,Bretagne,53
54204001,54200,R,POLE COMMERCIAL JEANNE D'ARC,Dommartin-lès-Toul,48.674,5.925,1.905,3/25/2024 17:30,0.845,4/4/2024 18:32,1.909,4/4/2024 18:32,1.939,"Gazole,SP95,E85,E10,SP98",GPLc,Oui,Meurthe-et-Moselle,54,Grand Est,44
87200003,87200,R,Avenue d'Oradour sur Glane,Saint-Junien,45.896,0.915,1.919,4/2/2024 12:09,0.829,4/4/2024 12:08,1.849,4/4/2024 12:08,1.939,"Gazole,SP95,E85,E10,SP98",GPLc,Oui,Haute-Vienne,87,Nouvelle-Aquitaine,75
35290001,35290,R,RUE HENRI LETORT,Saint-Méen-le-Grand,48.189,-2.199,1.889,2/27/2024 10:51,0.848,4/3/2024 16:21,1.845,4/5/2024 11:26,1.925,"Gazole,SP95,E85,E10,SP98",GPLc,Non,Ille-et-Vilaine,35,Bretagne,53
78470001,78470,R,PLACE DE BEAUPLAN,Saint-Rémy-lès-Chevreuse,48.716,2.085,1.929,4/4/2024 11:10,0.963,3/27/2024 9:53,1.887,3/27/2024 9:53,1.977,"Gazole,SP95,E85,E10,SP98",GPLc,Non,Yvelines,78,Île-de-France,11
60510001,60510,R,ZONE DE LA COUTURELLE,Bresles,49.41938,2.25509,1.909,3/20/2024 9:15,0.848,4/5/2024 9:18,1.861,4/5/2024 9:18,1.959,"Gazole,SP95,E85,E10,SP98",GPLc,Non,Oise,60,Hauts-de-France,32
82000019,82000,R,1155 Avenue de l'Europe,Montauban,43.989036,1.331024687,1.899,3/30/2024 21:00,0.799,4/3/2024 21:53,1.849,4/5/2024 6:57,1.943,"Gazole,SP95,E85,E10,SP98",GPLc,Oui,Tarn-et-Garonne,82,Occitanie,76
25500001,25500,R,15 RUE SAINT MICHEL,Morteau,47.056,6.609,1.899,4/1/2024 22:00,0.839,4/1/2024 22:00,1.899,4/1/2024 22:00,1.999,"Gazole,SP95,E85,E10,SP98",GPLc,Oui,Doubs,25,Bourgogne-Franche-Comté,27
71960001,71960,R,"Espace commercial ""Les deux roches"" ZA du Pré de Lit",Prissé,46.328,4.742,1.919,12/7/2023 13:18,0.979,4/3/2024 16:43,1.879,4/2/2024 18:09,1.959,"Gazole,SP95,E85,E10,SP98",GPLc,Oui,Saône-et-Loire,71,Bourgogne-Franche-Comté,27
5200001,5200,R,Zone d'Entraigues,Embrun,44.551,6.489,1.921,3/13/2024 10:13,0.848,4/5/2024 11:14,1.877,4/4/2024 10:53,1.987,"Gazole,SP95,E85,E10,SP98",GPLc,Oui,Hautes-Alpes,5,Provence-Alpes-Côte d'Azur,93
91180002,91180,R,Rue de Chanteloup,Saint-Germain-lès-Arpajon,48.596,2.254,1.929,1/5/2024 10:36,0.848,4/4/2024 10:51,1.879,4/4/2024 10:51,1.969,"Gazole,SP95,E85,E10,SP98",GPLc,Oui,Essonne,91,Île-de-France,11
13860001,13860,R,route du plan,Peyrolles-en-Provence,43.644,5.577,1.969,4/4/2024 13:19,1.04,4/4/2024 13:19,1.969,4/4/2024 13:19,1.989,"Gazole,SP95,E85,E10,SP98",GPLc,Oui,Bouches-du-Rhône,13,Provence-Alpes-Côte d'Azur,93
1170001,1170,R,RN5,Ségny,46.293,6.079,1.942,4/4/2024 9:56,0.842,4/4/2024 9:56,1.869,4/4/2024 9:56,1.968,"Gazole,SP95,E85,E10,SP98",GPLc,Non,Ain,1,Auvergne-Rhône-Alpes,84
34300001,34300,R,Boulevard Maurice Pacull,Agde,43.299,3.473,1.889,3/29/2024 9:22,0.845,4/4/2024 8:47,1.849,4/4/2024 8:47,1.919,"Gazole,SP95,E85,E10,SP98",GPLc,Oui,Hérault,34,Occitanie,76
10150002,10150,R,ZAC de Creney,Creney-près-Troyes,48.328,4.113,1.919,3/29/2024 8:34,0.848,4/5/2024 11:21,1.879,4/5/2024 11:21,1.979,"Gazole,SP95,E85,E10,SP98",GPLc,Non,Aube,10,Grand Est,44
61200007,61200,R,Avenue de la 2ème D.B.,Argentan,48.737,-0.031,1.907,4/4/2024 18:08,0.848,4/4/2024 14:00,1.864,3/30/2024 20:30,1.923,"Gazole,SP95,E85,E10,SP98",GPLc,Non,Orne,61,Normandie,28
44272001,44200,R,RUE GAETAN RONDEAU,Nantes,47.206,-1.535,1.903,4/3/2024 11:58,0.913,4/3/2024 11:58,1.873,4/3/2024 11:58,1.95,"Gazole,SP95,E85,E10,SP98",GPLc,Oui,Loire-Atlantique,44,Pays de la Loire,52
91150005,91150,R,AV DE BONNEVAUX,Étampes,48.429,2.16,1.961,4/2/2024 10:14,0.867,4/2/2024 10:14,1.921,4/2/2024 10:14,2.027,"Gazole,SP95,E85,E10,SP98",GPLc,Oui,Essonne,91,Île-de-France,11
33710003,33710,R,RN 137 Château - Sec,Pugnac,45.076,-0.499,1.919,1/2/2024 19:10,0.849,3/29/2024 9:45,1.879,3/29/2024 9:45,1.959,"Gazole,SP95,E85,E10,SP98",GPLc,Non,Gironde,33,Nouvelle-Aquitaine,75
76890001,76890,R,RUE DES 4 VENTS,Tôtes,49.681,1.046,1.889,4/5/2024 10:07,0.849,4/5/2024 10:07,1.839,4/5/2024 10:07,1.929,"Gazole,SP95,E85,E10,SP98",GPLc,Oui,Seine-Maritime,76,Normandie,28
78200003,78711,R,4/6/8 RUE DE CHANTEREINE RN.13,Mantes-la-Ville,48.968,1.717,1.877,2/22/2024 19:58,0.919,2/22/2024 19:58,1.949,2/22/2024 19:58,1.99,"Gazole,SP95,E85,E10,SP98",GPLc,Oui,Yvelines,78,Île-de-France,11
95370001,95370,R,66 Boulevard Victor Bordier,Montigny-lès-Cormeilles,48.993,2.198,1.95,4/5/2024 2:47,0.866,4/5/2024 2:47,1.919,4/5/2024 2:47,1.97,"Gazole,SP95,E85,E10,SP98",GPLc,Oui,Val-d'Oise,95,Île-de-France,11
33500001,33500,R,ROUTE DE CASTILLON,Libourne,44.901,-0.218,1.944,4/5/2024 2:26,0.83,4/5/2024 2:26,1.903,4/5/2024 2:26,1.985,"Gazole,SP95,E85,E10,SP98",GPLc,Oui,Gironde,33,Nouvelle-Aquitaine,75
25480001,25480,R,6 Rue de Châtillon,École-Valentin,47.284,5.993,1.921,4/5/2024 9:57,0.879,4/5/2024 9:57,1.885,4/5/2024 9:57,2,"Gazole,SP95,E85,E10,SP98",GPLc,Oui,Doubs,25,Bourgogne-Franche-Comté,27
38200004,38200,R,Chemin des Lones,Vienne,45.542,4.852,1.899,3/18/2024 11:08,0.899,4/4/2024 10:58,1.859,4/4/2024 10:58,1.949,"Gazole,SP95,E85,E10,SP98",GPLc,Non,Isère,38,Auvergne-Rhône-Alpes,84
64210004,64210,R,ROUTE NATIONALE 10,Bidart,43.44745,-1.57436,1.869,1/18/2024 20:25,0.849,4/4/2024 11:11,1.829,4/2/2024 11:25,1.919,"Gazole,SP95,E85,E10,SP98",GPLc,Non,Pyrénées-Atlantiques,64,Nouvelle-Aquitaine,75
93700003,93700,R,"80, rue Saint Stenay",Drancy,48.918,2.418,1.992,4/5/2024 9:57,1.002,4/5/2024 9:57,1.928,4/5/2024 9:57,1.999,"Gazole,SP95,E85,E10,SP98",GPLc,Non,Seine-Saint-Denis,93,Île-de-France,11
42270002,42270,R,2 Rue Lé Lagrange,Saint-Priest-en-Jarez,45.476,4.383,1.89,4/5/2024 11:31,0.849,4/5/2024 11:31,1.851,4/5/2024 11:31,1.959,"Gazole,SP95,E85,E10,SP98",GPLc,Oui,Loire,42,Auvergne-Rhône-Alpes,84
31120001,31120,R,Boulevard de l'Europe,Portet-sur-Garonne,43.543,1.404,1.9,3/27/2024 10:56,0.865,4/4/2024 16:21,1.855,4/4/2024 16:21,1.958,"Gazole,SP95,E85,E10,SP98",GPLc,Oui,Haute-Garonne,31,Occitanie,76
14130004,14130,R,PARC DU GRIEU - ROUTE DE LISIEUX,Pont-l'Évêque,49.2854059,0.20427899,1.929,4/3/2024 11:40,0.849,4/5/2024 10:57,1.865,4/5/2024 10:57,1.949,"Gazole,SP95,E85,E10,SP98",GPLc,Non,Calvados,14,Normandie,28
57410001,57410,R,Route de Strasbourg,Rohrbach-lès-Bitche,49.047,7.284,1.899,3/13/2024 8:56,0.839,3/28/2024 17:14,1.819,3/20/2024 16:55,1.869,"Gazole,SP95,E85,E10,SP98",GPLc,Oui,Moselle,57,Grand Est,44
1160002,1160,R,Le Pont Rompu - RD 1084,Pont-d'Ain,46.04020975,5.34231844,1.91,3/20/2024 9:00,0.89,4/3/2024 14:00,1.81,3/25/2024 9:00,1.96,"Gazole,SP95,E85,E10,SP98",GPLc,Non,Ain,1,Auvergne-Rhône-Alpes,84
31076001,31076,R,36 route de bayonne,Toulouse,43.609,1.397,1.96,4/5/2024 9:57,0.85,4/5/2024 9:57,1.854,4/5/2024 9:57,1.98,"Gazole,SP95,E85,E10,SP98",GPLc,Non,Haute-Garonne,31,Occitanie,76
7210001,7210,R,La Clef du Sac,Alissas,44.715,4.615,1.919,3/21/2024 10:13,0.899,4/4/2024 9:17,1.869,4/4/2024 9:17,1.949,"Gazole,SP95,E85,E10,SP98",GPLc,Oui,Ardèche,7,Auvergne-Rhône-Alpes,84
95800001,95650,R,RUE NEUVE,Puiseux-Pontoise,49.05575,2.0188,1.957,4/4/2024 13:10,0.953,4/4/2024 13:10,1.917,4/4/2024 13:10,2.005,"Gazole,SP95,E85,E10,SP98",GPLc,Non,Val-d'Oise,95,Île-de-France,11
16800001,16800,R,ave du general de gaulle,Soyaux,45.639,0.219,1.95,4/5/2024 9:57,1.007,4/5/2024 9:57,1.903,4/5/2024 9:57,1.979,"Gazole,SP95,E85,E10,SP98",GPLc,Oui,Charente,16,Nouvelle-Aquitaine,75
64130003,64130,R,Avenue d'Euskual-Herria,Chéraute,43.23,-0.874,1.935,2/12/2024 10:34,0.848,4/3/2024 14:03,1.891,4/3/2024 14:03,1.97,"Gazole,SP95,E85,E10,SP98",GPLc,Non,Pyrénées-Atlantiques,64,Nouvelle-Aquitaine,75
60690001,60690,R,145 DU GENERAL LECLERC,Marseille-en-Beauvaisis,49.582,1.954,1.927,4/4/2024 18:12,0.849,4/4/2024 18:12,1.887,4/4/2024 18:12,1.969,"Gazole,SP95,E85,E10,SP98",GPLc,Oui,Oise,60,Hauts-de-France,32
78114001,78114,R,rue vincent van gogh,Magny-les-Hameaux,48.725,2.083,1.931,3/21/2024 6:47,0.848,4/4/2024 10:23,1.889,4/4/2024 10:23,1.978,"Gazole,SP95,E85,E10,SP98",GPLc,Non,Yvelines,78,Île-de-France,11
12500004,12500,R,route d#039;estaing,Espalion,44.523,2.763,1.929,3/19/2024 9:15,0.899,4/5/2024 11:19,1.889,4/5/2024 11:19,1.969,"Gazole,SP95,E85,E10,SP98",GPLc,Non,Aveyron,12,Occitanie,76
64500003,64500,R,"107, Avenue de Jalday",Saint-Jean-de-Luz,43.403,-1.627,1.914,4/4/2024 2:27,1.018,4/4/2024 2:27,1.871,4/4/2024 2:27,1.95,"Gazole,SP95,E85,E10,SP98",GPLc,Non,Pyrénées-Atlantiques,64,Nouvelle-Aquitaine,75
31880001,31880,R,Avenue des Capitouls,La Salvetat-Saint-Gilles,43.58227,1.27493,1.939,2/22/2024 10:01,0.849,4/4/2024 11:36,1.899,4/4/2024 11:36,1.979,"Gazole,SP95,E85,E10,SP98",GPLc,Non,Haute-Garonne,31,Occitanie,76
37003001,37100,R,RUE DES BORDIERS,Tours,47.425,0.674,1.879,3/15/2024 7:00,0.845,4/3/2024 17:40,1.839,4/3/2024 8:00,1.929,"Gazole,SP95,E85,E10,SP98",GPLc,Non,Indre-et-Loire,37,Centre-Val de Loire,24
1600001,1700,R,Rue du Figuier,Miribel,45.828,4.972,1.985,4/3/2024 9:56,0.859,4/3/2024 9:56,1.939,4/3/2024 9:56,2.029,"Gazole,SP95,E85,E10,SP98",GPLc,Non,Ain,1,Auvergne-Rhône-Alpes,84
13013011,13013,R,281 Avenue des Olives,Marseille,43.32321,5.44699,1.933,4/4/2024 12:30,0.947,4/4/2024 12:30,1.867,4/4/2024 12:30,1.949,"Gazole,SP95,E85,E10,SP98",GPLc,Non,Bouches-du-Rhône,13,Provence-Alpes-Côte d'Azur,93
95360001,95360,R,136 Rue Jules Ferry,Montmagny,48.963,2.339,1.959,4/5/2024 0:00,0.848,4/5/2024 0:00,1.918,4/5/2024 0:00,1.987,"Gazole,SP95,E85,E10,SP98",GPLc,Oui,Val-d'Oise,95,Île-de-France,11
72250001,72250,R,LE RUISSEAU,Parigné-l'Évêque,47.94043827,0.354735227,1.899,4/5/2024 9:58,0.845,4/5/2024 9:58,1.869,4/5/2024 9:58,1.949,"Gazole,SP95,E85,E10,SP98",GPLc,Non,Sarthe,72,Pays de la Loire,52
91700003,91700,R,139 Route de Corbeil,Sainte-Geneviève-des-Bois,48.639,2.334,1.976,4/5/2024 9:57,1.002,4/5/2024 9:57,1.99,4/5/2024 9:57,1.999,"Gazole,SP95,E85,E10,SP98",GPLc,Oui,Essonne,91,Île-de-France,11
12300005,12300,R,280 Rue de la Renaissance,Decazeville,44.55913128,2.25812469,1.889,3/22/2024 9:23,0.899,4/4/2024 11:32,1.869,3/26/2024 9:57,1.929,"Gazole,SP95,E85,E10,SP98",GPLc,Oui,Aveyron,12,Occitanie,76
74380001,74380,R,45 route de Ripaille - P.A. de la Menoge,Bonne,46.172,6.312,1.927,4/5/2024 9:18,0.826,4/5/2024 9:18,1.857,4/5/2024 9:18,1.966,"Gazole,SP95,E85,E10,SP98",GPLc,Non,Haute-Savoie,74,Auvergne-Rhône-Alpes,84
83310007,83310,R,Avenue Sigismond Coulet,Cogolin,43.249,6.535,1.918,4/4/2024 9:59,0.898,4/4/2024 9:59,1.868,4/4/2024 9:59,1.961,"Gazole,SP95,E85,E10,SP98",GPLc,Non,Var,83,Provence-Alpes-Côte d'Azur,93
47300006,47300,R,Route d'Agen,Villeneuve-sur-Lot,44.39627251,0.706752642,1.929,3/30/2024 20:00,0.848,4/5/2024 11:41,1.879,4/5/2024 11:41,1.969,"Gazole,SP95,E85,E10,SP98",GPLc,Non,Lot-et-Garonne,47,Nouvelle-Aquitaine,75
18400001,18400,R,ZAC DE LA VIGONNIERE LES BROSSES,Saint-Florent-sur-Cher,47.005,2.267,1.939,4/5/2024 10:15,0.869,4/5/2024 10:15,1.879,4/5/2024 10:15,1.965,"Gazole,SP95,E85,E10,SP98",GPLc,Oui,Cher,18,Centre-Val de Loire,24
62223001,62223,R,Route de Lille,Saint-Nicolas,50.304,2.789,1.921,4/3/2024 9:51,0.799,4/2/2024 11:12,1.861,4/4/2024 10:25,1.951,"Gazole,SP95,E85,E10,SP98",GPLc,Non,Pas-de-Calais,62,Hauts-de-France,32
33230001,33230,R,Rue François Mitterrand,Coutras,45.046,-0.121,1.899,4/5/2024 3:17,0.829,4/5/2024 3:17,1.849,4/5/2024 3:17,1.927,"Gazole,SP95,E85,E10,SP98",GPLc,Non,Gironde,33,Nouvelle-Aquitaine,75
64420001,64420,R,ZAC PYRENEES EST BEARN,Nousty,43.27,-0.201,1.959,4/4/2024 17:08,0.999,4/4/2024 17:08,1.903,4/4/2024 17:08,1.995,"Gazole,SP95,E85,E10,SP98",GPLc,Oui,Pyrénées-Atlantiques,64,Nouvelle-Aquitaine,75
74000002,74000,R,134 avenue de geneve,Annecy,45.919,6.124,1.975,4/5/2024 9:57,0.899,4/5/2024 9:57,1.877,4/5/2024 9:57,2.007,"Gazole,SP95,E85,E10,SP98",GPLc,Oui,Haute-Savoie,74,Auvergne-Rhône-Alpes,84
83640001,83640,R,Avenue Augustin Juramy,Saint-Zacharie,43.383,5.706,1.889,4/4/2024 10:45,0.845,4/5/2024 10:35,1.849,4/5/2024 10:35,1.919,"Gazole,SP95,E85,E10,SP98",GPLc,Non,Var,83,Provence-Alpes-Côte d'Azur,93
82100006,82100,R,ZAC du Barraouet,Castelsarrasin,44.057,1.102,1.899,1/15/2024 11:07,0.849,4/4/2024 11:19,1.859,4/4/2024 11:19,1.939,"Gazole,SP95,E85,E10,SP98",GPLc,Oui,Tarn-et-Garonne,82,Occitanie,76
35170001,35170,R,2 Place du Vert Buisson,Bruz,48.02866373,-1.762127311,1.866,4/4/2024 11:42,0.848,4/4/2024 11:42,1.828,4/4/2024 11:42,1.919,"Gazole,SP95,E85,E10,SP98",GPLc,Non,Ille-et-Vilaine,35,Bretagne,53
35300002,35300,R,20 Place de l'Europe,Fougères,48.34735,-1.19382,1.919,11/29/2023 9:43,1.079,4/3/2024 10:39,1.879,3/26/2024 9:46,1.945,"Gazole,SP95,E85,E10,SP98",GPLc,Non,Ille-et-Vilaine,35,Bretagne,53
91220001,91220,R,CCIAL MAISON NEUVE,Brétigny-sur-Orge,48.587,2.304,1.935,4/4/2024 10:00,0.853,4/4/2024 10:00,1.872,4/4/2024 10:00,1.967,"Gazole,SP95,E85,E10,SP98",GPLc,Non,Essonne,91,Île-de-France,11
61170001,61170,R,Lieu-Dit les Naudières,Saint-Julien-sur-Sarthe,48.50357961,0.359408941,1.949,1/11/2024 11:22,0.849,4/2/2024 14:56,1.899,4/2/2024 14:56,1.959,"Gazole,SP95,E85,E10,SP98",GPLc,Non,Orne,61,Normandie,28
83140001,83140,R,Avenue de la Mer,Six-Fours-les-Plages,43.103,5.821,1.899,1/11/2024 14:27,0.899,4/5/2024 11:24,1.857,4/5/2024 11:24,1.949,"Gazole,SP95,E85,E10,SP98",GPLc,Oui,Var,83,Provence-Alpes-Côte d'Azur,93
30310001,30310,R,Route de Codognan,Vergèze,43.742,4.221,1.879,3/30/2024 9:19,0.839,4/5/2024 11:13,1.843,4/3/2024 11:20,1.939,"Gazole,SP95,E85,E10,SP98",GPLc,Oui,Gard,30,Occitanie,76
45160003,45160,R,181 Rue d'Artois,Olivet,47.843,1.915,1.882,4/5/2024 10:31,0.831,4/5/2024 10:31,1.849,4/5/2024 10:31,1.929,"Gazole,SP95,E85,E10,SP98",GPLc,Oui,Loiret,45,Centre-Val de Loire,24
91630001,91630,R,Rue de la gare,Marolles-en-Hurepoix,48.56445,2.29216,1.934,3/21/2024 12:50,0.95,3/29/2024 13:25,1.895,3/29/2024 13:25,1.978,"Gazole,SP95,E85,E10,SP98",GPLc,Non,Essonne,91,Île-de-France,11
68313001,68110,R,14 Rue de Berne,Illzach,47.772,7.387,1.856,3/30/2024 20:09,0.897,4/4/2024 12:09,1.839,4/4/2024 12:09,1.926,"Gazole,SP95,E85,E10,SP98",GPLc,Non,Haut-Rhin,68,Grand Est,44
53002001,53000,R,46 avenue de lattre de tassigny,Laval,48.079,-0.799,1.919,4/5/2024 11:20,0.914,4/5/2024 11:20,1.879,4/5/2024 11:20,1.969,"Gazole,SP95,E85,E10,SP98",GPLc,Oui,Mayenne,53,Pays de la Loire,52
63350003,63350,R,Rond Point Sud-Route de Clermont Ferrand,Maringues,45.912,3.334,1.949,4/3/2024 20:08,0.959,4/3/2024 20:08,1.899,4/3/2024 20:08,1.977,"Gazole,SP95,E85,E10,SP98",GPLc,Oui,Puy-de-Dôme,63,Auvergne-Rhône-Alpes,84
50000007,50000,R,1214 Avenue de Paris,Saint-Lô,49.11630197,-1.05833123,1.899,3/21/2024 8:03,0.839,4/2/2024 22:02,1.859,4/5/2024 9:57,1.949,"Gazole,SP95,E85,E10,SP98",GPLc,Non,Manche,50,Normandie,28
9500003,9500,R,13 avenue CHARLES DE GAULLE,Mirepoix,43.084,1.877,1.905,3/30/2024 20:33,0.849,4/3/2024 15:31,1.868,4/3/2024 15:31,1.984,"Gazole,SP95,E85,E10,SP98",GPLc,Oui,Ariège,9,Occitanie,76
91200001,91200,R,180 ROUTE NATIONALE 7,Paray-Vieille-Poste,48.712,2.371,1.949,4/5/2024 9:57,1.005,4/5/2024 9:57,1.89,4/5/2024 9:57,2,"Gazole,SP95,E85,E10,SP98",GPLc,Oui,Essonne,91,Île-de-France,11
60260001,60260,R,79 Avenue de la Libération,Lamorlaye,49.156,2.445,1.949,3/30/2024 11:07,0.849,3/30/2024 11:07,1.91,3/30/2024 11:07,1.995,"Gazole,SP95,E85,E10,SP98",GPLc,Oui,Oise,60,Hauts-de-France,32
44370008,44370,A,AUTOROUTE A11 - AIRE VARADES LA BÉDOIRE,Loireauxence,47.418,-1.018,1.99,4/5/2024 11:00,0.999,4/5/2024 11:00,1.99,4/5/2024 11:00,1.99,"Gazole,SP95,E85,E10,SP98",GPLc,Non,Loire-Atlantique,44,Pays de la Loire,52
31330002,31330,R,1 Avenue de Gascogne,Grenade,43.771,1.286,1.915,3/11/2024 15:12,0.848,4/2/2024 10:54,1.829,4/2/2024 10:54,1.915,"Gazole,SP95,E85,E10,SP98",GPLc,Non,Haute-Garonne,31,Occitanie,76
54700006,54700,R,CENTRE COMMERCIAL MONTRICHARD,Pont-à-Mousson,48.909,6.044,1.945,4/4/2024 8:25,0.848,4/4/2024 8:25,1.903,4/4/2024 8:25,1.988,"Gazole,SP95,E85,E10,SP98",GPLc,Non,Meurthe-et-Moselle,54,Grand Est,44
74190003,74190,R,91 Avenue de Marlioz,Passy,45.91878,6.70405,1.915,12/2/2023 20:00,1.029,3/22/2024 10:22,1.859,3/22/2024 10:22,1.945,"Gazole,SP95,E85,E10,SP98",GPLc,Non,Haute-Savoie,74,Auvergne-Rhône-Alpes,84
25210004,25210,R,AVENUE DE LATTRE DE TASSIGNY,Le Russey,47.1548494,6.719996,1.929,4/1/2024 22:00,0.839,4/1/2024 22:00,1.899,4/1/2024 22:00,1.999,"Gazole,SP95,E85,E10,SP98",GPLc,Oui,Doubs,25,Bourgogne-Franche-Comté,27
79025002,79000,R,"580, avenue de Paris",Niort,46.33666915,-0.413522744,1.873,3/30/2024 10:18,0.809,4/2/2024 8:05,1.823,4/2/2024 8:05,1.919,"Gazole,SP95,E85,E10,SP98",GPLc,Non,Deux-Sèvres,79,Nouvelle-Aquitaine,75
27120002,27120,R,rue du 18 Juin 40,Pacy-sur-Eure,49.01,1.397,1.908,1/25/2024 9:06,0.848,4/2/2024 14:02,1.889,4/2/2024 14:02,1.969,"Gazole,SP95,E85,E10,SP98",GPLc,Oui,Eure,27,Normandie,28
33740001,33740,R,Route de Bordeaux,Arès,44.769,-1.111,1.884,4/2/2024 11:02,0.95,4/2/2024 11:02,1.818,4/4/2024 11:48,1.906,"Gazole,SP95,E85,E10,SP98",GPLc,Oui,Gironde,33,Nouvelle-Aquitaine,75
37400002,37400,R,Avenue Léonard de Vinci,Amboise,47.404,1.018,1.889,4/5/2024 10:49,0.847,4/5/2024 10:49,1.849,4/5/2024 10:49,1.925,"Gazole,SP95,E85,E10,SP98",GPLc,Oui,Indre-et-Loire,37,Centre-Val de Loire,24
77195001,77190,R,RN7 BP23,Villiers-en-Bière,48.501,2.579,1.967,4/5/2024 9:57,0.9,4/5/2024 9:57,1.88,4/5/2024 9:57,1.973,"Gazole,SP95,E85,E10,SP98",GPLc,Non,Seine-et-Marne,77,Île-de-France,11
91814001,91100,R,ROUTE DE VILLOISON,Villabé,48.584,2.444,1.975,4/5/2024 9:57,0.9,4/5/2024 9:57,1.945,4/5/2024 9:57,1.999,"Gazole,SP95,E85,E10,SP98",GPLc,Oui,Essonne,91,Île-de-France,11
33340004,33340,R,Avenue Pierre Mendès France,Lesparre-Médoc,45.312,-0.94,1.955,4/5/2024 2:26,0.848,4/5/2024 2:26,1.859,4/5/2024 2:26,1.974,"Gazole,SP95,E85,E10,SP98",GPLc,Oui,Gironde,33,Nouvelle-Aquitaine,75
73200003,73600,R,Avenue des Salines Royales,Moûtiers,45.48660815,6.525331082,1.899,2/23/2024 10:50,0.949,3/21/2024 19:10,1.859,3/21/2024 19:10,1.965,"Gazole,SP95,E85,E10,SP98",GPLc,Oui,Savoie,73,Auvergne-Rhône-Alpes,84
45260001,45260,R,ROUTE D'ORLEANS,Lorris,47.88493,2.50202,1.899,4/3/2024 16:20,0.849,4/3/2024 16:20,1.859,4/3/2024 16:20,1.949,"Gazole,SP95,E85,E10,SP98",GPLc,Non,Loiret,45,Centre-Val de Loire,24
13112005,13112,R,672 Route des vignerons,La Destrousse,43.384,5.602,1.945,3/21/2024 8:00,0.979,4/3/2024 9:00,1.909,4/3/2024 9:00,1.984,"Gazole,SP95,E85,E10,SP98",GPLc,Oui,Bouches-du-Rhône,13,Provence-Alpes-Côte d'Azur,93
74520004,74520,R,50 chemin des Grands Chavannoux,Vulbens,46.105,5.959,1.939,4/1/2024 23:15,0.849,4/3/2024 11:26,1.874,4/3/2024 11:26,1.979,"Gazole,SP95,E85,E10,SP98",GPLc,Oui,Haute-Savoie,74,Auvergne-Rhône-Alpes,84
95550002,95550,R,ZAC DES MEUNIERS - 7 RUE STEPHANE HESSEL,Bessancourt,49.033,2.205,1.941,4/4/2024 10:05,0.869,4/4/2024 10:05,1.892,4/4/2024 10:05,1.979,"Gazole,SP95,E85,E10,SP98",GPLc,Oui,Val-d'Oise,95,Île-de-France,11
82800001,82800,R,Rue des Marchats,Nègrepelisse,44.07487,1.51788,1.959,2/13/2024 10:20,0.899,4/2/2024 11:58,1.879,4/2/2024 11:58,1.979,"Gazole,SP95,E85,E10,SP98",GPLc,Non,Tarn-et-Garonne,82,Occitanie,76
64233001,64230,R,route de bayonne,Lons,43.318,-0.424,1.968,4/5/2024 9:57,1.017,4/5/2024 9:57,1.908,4/5/2024 9:57,1.999,"Gazole,SP95,E85,E10,SP98",GPLc,Oui,Pyrénées-Atlantiques,64,Nouvelle-Aquitaine,75
46500003,46500,R,route de Brive,Gramat,44.787,1.72,1.929,4/3/2024 10:27,0.899,4/5/2024 11:20,1.869,4/5/2024 11:20,1.959,"Gazole,SP95,E85,E10,SP98",GPLc,Non,Lot,46,Occitanie,76
31130007,31130,R,Lieu dit MOUSSARD  Route de Castres,Flourens,43.58833737,1.578239786,1.919,4/1/2024 12:00,0.839,4/1/2024 12:00,1.859,3/23/2024 21:00,1.959,"Gazole,SP95,E85,E10,SP98",GPLc,Non,Haute-Garonne,31,Occitanie,76
66962001,66000,R,route de canet,Perpignan,42.701,2.944,1.963,4/5/2024 9:57,0.848,4/5/2024 9:57,1.928,4/5/2024 9:57,1.999,"Gazole,SP95,E85,E10,SP98",GPLc,Oui,Pyrénées-Orientales,66,Occitanie,76
21800002,21800,R,AVENUE DE BOURGOGNE,Quetigny,47.31,5.106,1.931,4/5/2024 7:49,0.899,4/5/2024 7:49,1.889,4/5/2024 7:49,1.99,"Gazole,SP95,E85,E10,SP98",GPLc,Oui,Côte-d'Or,21,Bourgogne-Franche-Comté,27
28200003,28200,R,Route du Mans,Saint-Denis-Lanneray,48.06712,1.30218,1.879,3/12/2024 9:25,0.839,4/3/2024 10:29,1.839,4/3/2024 10:29,1.899,"Gazole,SP95,E85,E10,SP98",GPLc,Non,Eure-et-Loir,28,Centre-Val de Loire,24
15000017,15000,R,ZAC de la Sablière,Aurillac,44.929,2.438,1.919,2/13/2024 9:47,0.839,4/4/2024 11:18,1.864,3/26/2024 10:19,1.921,"Gazole,SP95,E85,E10,SP98",GPLc,Oui,Cantal,15,Auvergne-Rhône-Alpes,84
47190001,47190,R,Rue Anatole France,Aiguillon,44.29654,0.34412,1.92,4/5/2024 11:09,0.848,4/5/2024 11:09,1.877,4/5/2024 11:10,1.958,"Gazole,SP95,E85,E10,SP98",GPLc,Non,Lot-et-Garonne,47,Nouvelle-Aquitaine,75
13670001,13670,R,RN7 - Quartier des Jesuites,Saint-Andiol,43.84548773,4.932730274,1.943,4/4/2024 12:30,0.927,4/4/2024 12:30,1.859,4/4/2024 12:30,1.967,"Gazole,SP95,E85,E10,SP98",GPLc,Non,Bouches-du-Rhône,13,Provence-Alpes-Côte d'Azur,93
41800002,41800,R,avenue de la Paix,Montoire-sur-le-Loir,47.759,0.876,1.899,3/29/2024 6:45,0.848,4/5/2024 10:44,1.869,4/5/2024 10:44,1.939,"Gazole,SP95,E85,E10,SP98",GPLc,Non,Loir-et-Cher,41,Centre-Val de Loire,24
